{"fetched_at":"2026-03-29T16:36:15Z","count":15609,"tles":[{"name":"2025-274B","line1":"1 66651U 25274B   26087.76219487  .00004212  00000+0  41276-3 0  9992","line2":"2 66651  97.7446  18.1313 0010301 259.7746 100.2312 14.92752429 18211","category":"Other"}]}