{
  "norad_id": 66651,
  "name": "2025-274B",
  "history": [
    {
      "epoch": "2026-03-28T18:17:33.636768",
      "apogee_km": 596.5353171839397,
      "perigee_km": 582.1801877454373,
      "latitude_deg": -14.542160465864722,
      "longitude_deg": -161.72929247980937,
      "semi_major_axis_km": 6967.494752464688,
      "eccentricity": 0.00103015,
      "inclination_deg": 97.7446,
      "raan_deg": 18.1313,
      "arg_perigee_deg": 259.7746,
      "mean_anomaly_deg": 100.2312,
      "mean_motion_rev_day": 14.92752429
    }
  ]
}